[{"OBJECT_NAME":"STARLINK-34837","OBJECT_ID":"2025-192V","EPOCH":"2026-03-09T22:00:01.999584","MEAN_MOTION":15.3019202,"ECCENTRICITY":8.322e-5,"INCLINATION":53.1586,"RA_OF_ASC_NODE":231.2114,"ARG_OF_PERICENTER":82.97,"MEAN_ANOMALY":152.4738,"EPHEMERIS_TYPE":0,"CLASSIFICATION_TYPE":"U","NORAD_CAT_ID":65423,"ELEMENT_SET_NO":999,"REV_AT_EPOCH":573,"BSTAR":0.0028885231,"MEAN_MOTION_DOT":0.00086166,"MEAN_MOTION_DDOT":0},{"OBJECT_NAME":"COSMOS 1975","OBJECT_ID":"1988-093A","EPOCH":"2026-03-09T14:15:08.474112","MEAN_MOTION":15.28069249,"ECCENTRICITY":0.0012117,"INCLINATION":82.5181,"RA_OF_ASC_NODE":117.7814,"ARG_OF_PERICENTER":163.8427,"MEAN_ANOMALY":196.3201,"EPHEMERIS_TYPE":0,"CLASSIFICATION_TYPE":"U","NORAD_CAT_ID":19573,"ELEMENT_SET_NO":999,"REV_AT_EPOCH":1939,"BSTAR":0.0002787,"MEAN_MOTION_DOT":7.676e-5,"MEAN_MOTION_DDOT":0}]
